[{"OBJECT_NAME":"STARLINK-34462","OBJECT_ID":"2025-133X","EPOCH":"2026-03-09T12:36:43.204320","MEAN_MOTION":15.30226298,"ECCENTRICITY":0.0001182,"INCLINATION":53.1596,"RA_OF_ASC_NODE":117.5291,"ARG_OF_PERICENTER":222.9201,"MEAN_ANOMALY":137.1708,"EPHEMERIS_TYPE":0,"CLASSIFICATION_TYPE":"U","NORAD_CAT_ID":64493,"ELEMENT_SET_NO":999,"REV_AT_EPOCH":4116,"BSTAR":0.0013454,"MEAN_MOTION_DOT":0.00039735,"MEAN_MOTION_DDOT":0},{"OBJECT_NAME":"AVUM R\/B","OBJECT_ID":"2015-028B","EPOCH":"2026-03-09T15:47:10.915008","MEAN_MOTION":15.38120394,"ECCENTRICITY":0.01316946,"INCLINATION":98.6577,"RA_OF_ASC_NODE":312.3046,"ARG_OF_PERICENTER":250.9525,"MEAN_ANOMALY":107.7413,"EPHEMERIS_TYPE":0,"CLASSIFICATION_TYPE":"U","NORAD_CAT_ID":40698,"ELEMENT_SET_NO":999,"REV_AT_EPOCH":58785,"BSTAR":0.00031736457,"MEAN_MOTION_DOT":0.00015963,"MEAN_MOTION_DDOT":0}]
